start=new Date('2023-01-03T00:00:00.000Z').valueOf();
sats=[{"REF_FRAME":"TEME","SEMIMAJOR_AXIS":"6950.160","APOAPSIS":"574.337","MEAN_ELEMENT_THEORY":"SGP4","FILE":"3729873","ARG_OF_PERICENTER":"255.5192","TLE_LINE1":"1 49178U 21082BA  23002.66221147  .00000195  00000-0  24130-4 0  9997","PERIOD":"96.106","OBJECT_NAME":"STARLINK-3086","MEAN_MOTION":"14.98340659","EPOCH":"2023-01-02T15:53:35.071008","CLASSIFICATION_TYPE":"U","DECAY_DATE":null,"NORAD_CAT_ID":"49178","CENTER_NAME":"EARTH","MEAN_ANOMALY":"104.5598","OBJECT_ID":"2021-082BA","EPHEMERIS_TYPE":"0","OBJECT_TYPE":"PAYLOAD","INCLINATION":"70.0006","GP_ID":"222063283","PERIAPSIS":"569.713","COUNTRY_CODE":"US","SITE":"AFWTR","ELEMENT_SET_NO":"999","LAUNCH_DATE":"2021-09-14","TLE_LINE2":"2 49178  70.0006 344.3423 0003327 255.5192 104.5598 14.98340659 73079","ECCENTRICITY":"0.00033270","MEAN_MOTION_DOT":"0.00000195","BSTAR":"0.00002413000000","RA_OF_ASC_NODE":"344.3423","REV_AT_EPOCH":"7307","MEAN_MOTION_DDOT":"0.0000000000000","TIME_SYSTEM":"UTC","RCS_SIZE":"LARGE"},{"BSTAR":"0.00018901000000","ECCENTRICITY":"0.00032730","MEAN_MOTION_DOT":"0.00002163","TLE_LINE2":"2 49179  70.0011 303.9338 0003273 276.9645  83.1142 14.98325862 72921","RCS_SIZE":"LARGE","TIME_SYSTEM":"UTC","MEAN_MOTION_DDOT":"0.0000000000000","REV_AT_EPOCH":"7292","RA_OF_ASC_NODE":"303.9338","PERIAPSIS":"569.796","COUNTRY_CODE":"US","GP_ID":"222063535","INCLINATION":"70.0011","EPHEMERIS_TYPE":"0","OBJECT_TYPE":"PAYLOAD","LAUNCH_DATE":"2021-09-14","ELEMENT_SET_NO":"999","SITE":"AFWTR","DECAY_DATE":null,"NORAD_CAT_ID":"49179","MEAN_MOTION":"14.98325862","EPOCH":"2023-01-02T19:46:59.415456","CLASSIFICATION_TYPE":"U","OBJECT_NAME":"STARLINK-3043","PERIOD":"96.107","MEAN_ANOMALY":"83.1142","OBJECT_ID":"2021-082BB","CENTER_NAME":"EARTH","APOAPSIS":"574.345","SEMIMAJOR_AXIS":"6950.206","MEAN_ELEMENT_THEORY":"SGP4","FILE":"3729873","REF_FRAME":"TEME","ARG_OF_PERICENTER":"276.9645","TLE_LINE1":"1 49179U 21082BB  23002.82429879  .00002163  00000-0  18901-3 0  9993"},{"ELEMENT_SET_NO":"999","LAUNCH_DATE":"2021-09-14","SITE":"AFWTR","GP_ID":"222030742","PERIAPSIS":"570.058","COUNTRY_CODE":"US","EPHEMERIS_TYPE":"0","OBJECT_TYPE":"PAYLOAD","INCLINATION":"70.0017","TIME_SYSTEM":"UTC","RCS_SIZE":"LARGE","RA_OF_ASC_NODE":"324.4794","MEAN_MOTION_DDOT":"0.0000000000000","REV_AT_EPOCH":"7357","BSTAR":"-0.00003655700000","TLE_LINE2":"2 49180  70.0017 324.4794 0002895 271.5122  88.5705 14.98326002 73576","ECCENTRICITY":"0.00028950","MEAN_MOTION_DOT":"-0.00000529","ARG_OF_PERICENTER":"271.5122","TLE_LINE1":"1 49180U 21082BC  23002.60633171 -.00000529  00000-0 -36557-4 0  9997","SEMIMAJOR_AXIS":"6950.205","APOAPSIS":"574.082","FILE":"3729583","MEAN_ELEMENT_THEORY":"SGP4","REF_FRAME":"TEME","OBJECT_ID":"2021-082BC","MEAN_ANOMALY":"88.5705","CENTER_NAME":"EARTH","EPOCH":"2023-01-02T14:33:07.059744","CLASSIFICATION_TYPE":"U","MEAN_MOTION":"14.98326002","NORAD_CAT_ID":"49180","DECAY_DATE":null,"PERIOD":"96.107","OBJECT_NAME":"STARLINK-3050"},{"RCS_SIZE":"LARGE","TIME_SYSTEM":"UTC","MEAN_MOTION_DDOT":"0.0000000000000","REV_AT_EPOCH":"7314","RA_OF_ASC_NODE":"343.7078","BSTAR":"0.00004680000000","ECCENTRICITY":"0.00028190","MEAN_MOTION_DOT":"0.00000465","TLE_LINE2":"2 49181  70.0000 343.7078 0002819 273.1858  86.8979 14.98331579 73140","LAUNCH_DATE":"2021-09-14","ELEMENT_SET_NO":"999","SITE":"AFWTR","PERIAPSIS":"570.094","COUNTRY_CODE":"US","GP_ID":"222062534","INCLINATION":"70.0000","EPHEMERIS_TYPE":"0","OBJECT_TYPE":"PAYLOAD","OBJECT_ID":"2021-082BD","MEAN_ANOMALY":"86.8979","CENTER_NAME":"EARTH","NORAD_CAT_ID":"49181","DECAY_DATE":null,"MEAN_MOTION":"14.98331579","CLASSIFICATION_TYPE":"U","EPOCH":"2023-01-02T21:50:40.056576","OBJECT_NAME":"STARLINK-3059","PERIOD":"96.107","ARG_OF_PERICENTER":"273.1858","TLE_LINE1":"1 49181U 21082BD  23002.91018584  .00000465  00000-0  46800-4 0  9996","SEMIMAJOR_AXIS":"6950.188","APOAPSIS":"574.012","FILE":"3729873","MEAN_ELEMENT_THEORY":"SGP4","REF_FRAME":"TEME"},{"PERIOD":"95.437","OBJECT_NAME":"STARLINK-3151","CLASSIFICATION_TYPE":"U","MEAN_MOTION":"15.08844080","EPOCH":"2023-01-02T07:56:51.335808","NORAD_CAT_ID":"49408","DECAY_DATE":null,"CENTER_NAME":"EARTH","MEAN_ANOMALY":"260.8010","OBJECT_ID":"2021-104A","REF_FRAME":"TEME","APOAPSIS":"540.677","SEMIMAJOR_AXIS":"6917.868","FILE":"3729583","MEAN_ELEMENT_THEORY":"SGP4","ARG_OF_PERICENTER":"99.3136","TLE_LINE1":"1 49408U 21104A   23002.33114972  .00003479  00000-0  23656-3 0  9998","TLE_LINE2":"2 49408  53.2187  47.1600 0001365  99.3136 260.8010 15.08844080 63157","ECCENTRICITY":"0.00013650","MEAN_MOTION_DOT":"0.00003479","BSTAR":"0.00023656000000","RA_OF_ASC_NODE":"47.1600","MEAN_MOTION_DDOT":"0.0000000000000","REV_AT_EPOCH":"6315","TIME_SYSTEM":"UTC","RCS_SIZE":"LARGE","EPHEMERIS_TYPE":"0","OBJECT_TYPE":"PAYLOAD","INCLINATION":"53.2187","GP_ID":"222032519","PERIAPSIS":"538.789","COUNTRY_CODE":"US","SITE":"AFETR","ELEMENT_SET_NO":"999","LAUNCH_DATE":"2021-11-13"},{"LAUNCH_DATE":"2021-11-13","ELEMENT_SET_NO":"999","SITE":"AFETR","COUNTRY_CODE":"US","PERIAPSIS":"538.208","GP_ID":"222064311","INCLINATION":"53.2176","OBJECT_TYPE":"PAYLOAD","EPHEMERIS_TYPE":"0","RCS_SIZE":"LARGE","TIME_SYSTEM":"UTC","MEAN_MOTION_DDOT":"0.0000000000000","REV_AT_EPOCH":"6323","RA_OF_ASC_NODE":"45.0132","BSTAR":"0.00040720000000","MEAN_MOTION_DOT":"0.00006198","ECCENTRICITY":"0.00022400","TLE_LINE2":"2 49409  53.2176  45.0132 0002240  35.2844 324.8296 15.08836143 63238","TLE_LINE1":"1 49409U 21104B   23002.80953838  .00006198  00000-0  40720-3 0  9995","ARG_OF_PERICENTER":"35.2844","MEAN_ELEMENT_THEORY":"SGP4","FILE":"3729873","APOAPSIS":"541.307","SEMIMAJOR_AXIS":"6917.892","REF_FRAME":"TEME","OBJECT_ID":"2021-104B","MEAN_ANOMALY":"324.8296","CENTER_NAME":"EARTH","NORAD_CAT_ID":"49409","DECAY_DATE":null,"MEAN_MOTION":"15.08836143","CLASSIFICATION_TYPE":"U","EPOCH":"2023-01-02T19:25:44.116032","OBJECT_NAME":"STARLINK-3075","PERIOD":"95.438"},{"OBJECT_TYPE":"PAYLOAD","EPHEMERIS_TYPE":"0","INCLINATION":"53.2171","GP_ID":"222064561","COUNTRY_CODE":"US","PERIAPSIS":"537.800","SITE":"AFETR","ELEMENT_SET_NO":"999","LAUNCH_DATE":"2021-11-13","TLE_LINE2":"2 49410  53.2171  45.0430 0002810  27.9626 332.1516 15.08840463 63221","MEAN_MOTION_DOT":"-0.00001428","ECCENTRICITY":"0.00028100","BSTAR":"-0.00007158200000","RA_OF_ASC_NODE":"45.0430","REV_AT_EPOCH":"6322","MEAN_MOTION_DDOT":"0.0000000000000","TIME_SYSTEM":"UTC","RCS_SIZE":"LARGE","REF_FRAME":"TEME","FILE":"3729873","MEAN_ELEMENT_THEORY":"SGP4","APOAPSIS":"541.688","SEMIMAJOR_AXIS":"6917.879","TLE_LINE1":"1 49410U 21104C   23002.80217709 -.00001428  00000-0 -71582-4 0  9991","ARG_OF_PERICENTER":"27.9626","PERIOD":"95.438","OBJECT_NAME":"STARLINK-3147","CLASSIFICATION_TYPE":"U","MEAN_MOTION":"15.08840463","EPOCH":"2023-01-02T19:15:08.100576","NORAD_CAT_ID":"49410","DECAY_DATE":null,"CENTER_NAME":"EARTH","MEAN_ANOMALY":"332.1516","OBJECT_ID":"2021-104C"},{"NORAD_CAT_ID":"49411","DECAY_DATE":null,"EPOCH":"2023-01-02T19:05:52.929600","MEAN_MOTION":"15.08833766","CLASSIFICATION_TYPE":"U","OBJECT_NAME":"STARLINK-3162","PERIOD":"95.438","MEAN_ANOMALY":"339.8145","OBJECT_ID":"2021-104D","CENTER_NAME":"EARTH","FILE":"3729873","MEAN_ELEMENT_THEORY":"SGP4","SEMIMAJOR_AXIS":"6917.899","APOAPSIS":"541.770","REF_FRAME":"TEME","TLE_LINE1":"1 49411U 21104D   23002.79575150  .00011234  00000-0  72288-3 0  9994","ARG_OF_PERICENTER":"20.2962","BSTAR":"0.00072288000000","MEAN_MOTION_DOT":"0.00011234","ECCENTRICITY":"0.00028990","TLE_LINE2":"2 49411  53.2157  35.0730 0002899  20.2962 339.8145 15.08833766 63369","RCS_SIZE":"LARGE","TIME_SYSTEM":"UTC","MEAN_MOTION_DDOT":"0.0000000000000","REV_AT_EPOCH":"6336","RA_OF_ASC_NODE":"35.0730","COUNTRY_CODE":"US","PERIAPSIS":"537.759","GP_ID":"222065811","INCLINATION":"53.2157","OBJECT_TYPE":"PAYLOAD","EPHEMERIS_TYPE":"0","LAUNCH_DATE":"2021-11-13","ELEMENT_SET_NO":"999","SITE":"AFETR"},{"OBJECT_ID":"2021-104E","MEAN_ANOMALY":"324.8599","CENTER_NAME":"EARTH","NORAD_CAT_ID":"49412","DECAY_DATE":null,"MEAN_MOTION":"15.08835723","CLASSIFICATION_TYPE":"U","EPOCH":"2023-01-02T19:20:26.835360","OBJECT_NAME":"STARLINK-3144","PERIOD":"95.438","TLE_LINE1":"1 49412U 21104E   23002.80586615  .00013671  00000-0  87544-3 0  9993","ARG_OF_PERICENTER":"35.2554","MEAN_ELEMENT_THEORY":"SGP4","FILE":"3729873","SEMIMAJOR_AXIS":"6917.893","APOAPSIS":"541.444","REF_FRAME":"TEME","RCS_SIZE":"LARGE","TIME_SYSTEM":"UTC","MEAN_MOTION_DDOT":"0.0000000000000","REV_AT_EPOCH":"6323","RA_OF_ASC_NODE":"45.0291","BSTAR":"0.00087544000000","MEAN_MOTION_DOT":"0.00013671","ECCENTRICITY":"0.00024360","TLE_LINE2":"2 49412  53.2174  45.0291 0002436  35.2554 324.8599 15.08835723 63230","LAUNCH_DATE":"2021-11-13","ELEMENT_SET_NO":"999","SITE":"AFETR","COUNTRY_CODE":"US","PERIAPSIS":"538.073","GP_ID":"222066062","INCLINATION":"53.2174","OBJECT_TYPE":"PAYLOAD","EPHEMERIS_TYPE":"0"},{"ARG_OF_PERICENTER":"24.8151","TLE_LINE1":"1 49413U 21104F   23002.79207003  .00012811  00000-0  82159-3 0  9995","REF_FRAME":"TEME","APOAPSIS":"541.764","SEMIMAJOR_AXIS":"6917.892","MEAN_ELEMENT_THEORY":"SGP4","FILE":"3729873","CENTER_NAME":"EARTH","MEAN_ANOMALY":"335.2980","OBJECT_ID":"2021-104F","PERIOD":"95.438","OBJECT_NAME":"STARLINK-3157","CLASSIFICATION_TYPE":"U","EPOCH":"2023-01-02T19:00:34.850592","MEAN_MOTION":"15.08836058","DECAY_DATE":null,"NORAD_CAT_ID":"49413","SITE":"AFETR","ELEMENT_SET_NO":"999","LAUNCH_DATE":"2021-11-13","EPHEMERIS_TYPE":"0","OBJECT_TYPE":"PAYLOAD","INCLINATION":"53.2173","GP_ID":"222064811","PERIAPSIS":"537.751","COUNTRY_CODE":"US","RA_OF_ASC_NODE":"35.0869","REV_AT_EPOCH":"6336","MEAN_MOTION_DDOT":"0.0000000000000","TIME_SYSTEM":"UTC","RCS_SIZE":"LARGE","TLE_LINE2":"2 49413  53.2173  35.0869 0002900  24.8151 335.2980 15.08836058 63369","ECCENTRICITY":"0.00029000","MEAN_MOTION_DOT":"0.00012811","BSTAR":"0.00082159000000"}];
